TIGER-5                 
1 58277U 23174X   26111.51498921  .10179857  25260-5  47333-3 0  9997
2 58277  97.3460 210.3630 0014140 263.7226  96.2464 16.41697132137588
FLOCK 4Q-17             
1 58283U 23174AD  26112.20522195  .00831778  31764-3  18441-2 0  9999
2 58283  97.3662 206.7795 0007604 266.2020  93.8388 15.97953467137435
BRO-10                  
1 58331U 23174CD  26112.54927394  .01563140  19203-2  14073-2 0  9996
2 58331  97.3571 209.4116 0013289 253.6129 106.3696 16.13009544137676
OBJECT G                
1 58923U 24024G   26111.61655249  .10152892  24702-5  94718-3 0  9998
2 58923  97.2921 208.5414 0015510 249.5484 110.4149 16.38359028124621
FLOCK 4BE-16            
1 60483U 24149R   26112.23224034  .01348693  12438-2  13814-2 0  9996
2 60483  97.3537 201.0540 0012097 269.8929  90.0969 16.10936347 94054
TUSUR GO (RS78S)        
1 61782U 24199AZ  26112.26508565  .00425010  71937-4  12471-2 0  9998
2 61782  97.2852 352.6215 0006661 131.9331 228.2512 15.92675918126108
OBJECT DM               
1 63002U 25009DM  26111.97986003  .00916292  37463-3  24104-2 0  9998
2 63002  97.3929 204.8772 0009573 266.0060  94.0121 15.94778226128634
CLARITY-1               
1 63227U 25052T   26112.29074857  .00130099  84926-5  38270-3 0  9997
2 63227  97.4157  28.2268 0003978 110.5815 249.5886 15.92710763 62754
STARLINK-33633          
1 63382U 25063V   26112.43503572  .00647372  21534-3  89054-3 0  9995
2 63382  53.1379 179.9463 0015602 344.2458  15.8087 16.05310341 61814
HYDRA-W                 
1 63490U 25052BL  26112.26439385  .02130398  41366-2  26477-2 0  9994
2 63490  97.3739  16.4004 0007523 180.8298 179.2974 16.08789288 62060
STARLINK-34268          
1 64496U 25133AA  26112.25001157  .02119655  29696-2  48248-2 0  9997
2 64496  53.1583 270.1650 0001191 339.2441 154.3774 15.97590166  5864
STARLINK-34792          
1 65085U 25167H   26112.52110458  .01513801  15031-2  19476-2 0  9993
2 65085  53.1571 177.7870 0001646  46.1720 313.9449 16.06945307 40268
COSMOS 2591             
1 65267U 25182A   26112.06677192  .00074879  39870-5  18115-3 0  9990
2 65267  96.5897  44.4137 0006623  55.8113 304.3793 15.96420651 38745
COSMOS 2592             
1 65268U 25182B   26112.08244296  .00077419  41320-5  18717-3 0  9992
2 65268  96.5854  44.3780 0007075  56.1410 304.0541 15.96421556 38741
COSMOS 2593             
1 65269U 25182C   26111.84738551  .00074388  39580-5  18004-3 0  9994
2 65269  96.5885  44.1247 0006923  53.3647 306.8267 15.96409787 38707
COSMOS 2594             
1 65270U 25182D   26111.98843064  .00001569  18510-5  51808-5 0  9999
2 65270  96.5913  44.2407 0006930  54.3446 305.8477 15.96376440 38741
