[{"OBJECT_NAME":"TIGER-5","OBJECT_ID":"2023-174X","EPOCH":"2026-04-21T12:21:35.067744","MEAN_MOTION":16.41697132,"ECCENTRICITY":0.001414,"INCLINATION":97.346,"RA_OF_ASC_NODE":210.363,"ARG_OF_PERICENTER":263.7226,"MEAN_ANOMALY":96.2464,"EPHEMERIS_TYPE":0,"CLASSIFICATION_TYPE":"U","NORAD_CAT_ID":58277,"ELEMENT_SET_NO":999,"REV_AT_EPOCH":13758,"BSTAR":0.00047333,"MEAN_MOTION_DOT":0.10179857,"MEAN_MOTION_DDOT":2.526e-6},{"OBJECT_NAME":"FLOCK 4Q-17","OBJECT_ID":"2023-174AD","EPOCH":"2026-04-22T04:55:31.176480","MEAN_MOTION":15.97953467,"ECCENTRICITY":0.00076043,"INCLINATION":97.3662,"RA_OF_ASC_NODE":206.7795,"ARG_OF_PERICENTER":266.202,"MEAN_ANOMALY":93.8388,"EPHEMERIS_TYPE":0,"CLASSIFICATION_TYPE":"U","NORAD_CAT_ID":58283,"ELEMENT_SET_NO":999,"REV_AT_EPOCH":13743,"BSTAR":0.0018441161,"MEAN_MOTION_DOT":0.00831778,"MEAN_MOTION_DDOT":0.000317636},{"OBJECT_NAME":"BRO-10","OBJECT_ID":"2023-174CD","EPOCH":"2026-04-22T13:10:57.268416","MEAN_MOTION":16.13009544,"ECCENTRICITY":0.0013289,"INCLINATION":97.3571,"RA_OF_ASC_NODE":209.4116,"ARG_OF_PERICENTER":253.6129,"MEAN_ANOMALY":106.3696,"EPHEMERIS_TYPE":0,"CLASSIFICATION_TYPE":"U","NORAD_CAT_ID":58331,"ELEMENT_SET_NO":999,"REV_AT_EPOCH":13767,"BSTAR":0.0014073,"MEAN_MOTION_DOT":0.0156314,"MEAN_MOTION_DDOT":0.0019203},{"OBJECT_NAME":"OBJECT G","OBJECT_ID":"2024-024G","EPOCH":"2026-04-21T14:47:50.135136","MEAN_MOTION":16.38359028,"ECCENTRICITY":0.001551,"INCLINATION":97.2921,"RA_OF_ASC_NODE":208.5414,"ARG_OF_PERICENTER":249.5484,"MEAN_ANOMALY":110.4149,"EPHEMERIS_TYPE":0,"CLASSIFICATION_TYPE":"U","NORAD_CAT_ID":58923,"ELEMENT_SET_NO":999,"REV_AT_EPOCH":12462,"BSTAR":0.00094718,"MEAN_MOTION_DOT":0.10152892,"MEAN_MOTION_DDOT":2.4702e-6},{"OBJECT_NAME":"FLOCK 4BE-16","OBJECT_ID":"2024-149R","EPOCH":"2026-04-22T05:34:25.565376","MEAN_MOTION":16.10936347,"ECCENTRICITY":0.00120973,"INCLINATION":97.3537,"RA_OF_ASC_NODE":201.054,"ARG_OF_PERICENTER":269.8929,"MEAN_ANOMALY":90.0969,"EPHEMERIS_TYPE":0,"CLASSIFICATION_TYPE":"U","NORAD_CAT_ID":60483,"ELEMENT_SET_NO":999,"REV_AT_EPOCH":9405,"BSTAR":0.001381366,"MEAN_MOTION_DOT":0.01348693,"MEAN_MOTION_DDOT":0.0012437684},{"OBJECT_NAME":"TUSUR GO (RS78S)","OBJECT_ID":"2024-199AZ","EPOCH":"2026-04-22T06:21:43.400160","MEAN_MOTION":15.92675918,"ECCENTRICITY":0.00066617,"INCLINATION":97.2852,"RA_OF_ASC_NODE":352.6215,"ARG_OF_PERICENTER":131.9331,"MEAN_ANOMALY":228.2512,"EPHEMERIS_TYPE":0,"CLASSIFICATION_TYPE":"U","NORAD_CAT_ID":61782,"ELEMENT_SET_NO":999,"REV_AT_EPOCH":12610,"BSTAR":0.0012471349,"MEAN_MOTION_DOT":0.0042501,"MEAN_MOTION_DDOT":7.1937098e-5},{"OBJECT_NAME":"OBJECT DM","OBJECT_ID":"2025-009DM","EPOCH":"2026-04-21T23:30:59.906592","MEAN_MOTION":15.94778226,"ECCENTRICITY":0.00095731,"INCLINATION":97.3929,"RA_OF_ASC_NODE":204.8772,"ARG_OF_PERICENTER":266.006,"MEAN_ANOMALY":94.0121,"EPHEMERIS_TYPE":0,"CLASSIFICATION_TYPE":"U","NORAD_CAT_ID":63002,"ELEMENT_SET_NO":999,"REV_AT_EPOCH":12863,"BSTAR":0.0024104482,"MEAN_MOTION_DOT":0.00916292,"MEAN_MOTION_DDOT":0.00037462941},{"OBJECT_NAME":"CLARITY-1","OBJECT_ID":"2025-052T","EPOCH":"2026-04-22T06:58:40.676448","MEAN_MOTION":15.92710763,"ECCENTRICITY":0.00039786,"INCLINATION":97.4157,"RA_OF_ASC_NODE":28.2268,"ARG_OF_PERICENTER":110.5815,"MEAN_ANOMALY":249.5886,"EPHEMERIS_TYPE":0,"CLASSIFICATION_TYPE":"U","NORAD_CAT_ID":63227,"ELEMENT_SET_NO":999,"REV_AT_EPOCH":6275,"BSTAR":0.00038270073,"MEAN_MOTION_DOT":0.00130099,"MEAN_MOTION_DDOT":8.492644e-6},{"OBJECT_NAME":"STARLINK-33633","OBJECT_ID":"2025-063V","EPOCH":"2026-04-22T10:26:27.086208","MEAN_MOTION":16.05310341,"ECCENTRICITY":0.0015602,"INCLINATION":53.1379,"RA_OF_ASC_NODE":179.9463,"ARG_OF_PERICENTER":344.2458,"MEAN_ANOMALY":15.8087,"EPHEMERIS_TYPE":0,"CLASSIFICATION_TYPE":"U","NORAD_CAT_ID":63382,"ELEMENT_SET_NO":999,"REV_AT_EPOCH":6181,"BSTAR":0.00089054,"MEAN_MOTION_DOT":0.00647372,"MEAN_MOTION_DDOT":0.00021534},{"OBJECT_NAME":"HYDRA-W","OBJECT_ID":"2025-052BL","EPOCH":"2026-04-22T06:20:43.628640","MEAN_MOTION":16.08789288,"ECCENTRICITY":0.00075235,"INCLINATION":97.3739,"RA_OF_ASC_NODE":16.4004,"ARG_OF_PERICENTER":180.8298,"MEAN_ANOMALY":179.2974,"EPHEMERIS_TYPE":0,"CLASSIFICATION_TYPE":"U","NORAD_CAT_ID":63490,"ELEMENT_SET_NO":999,"REV_AT_EPOCH":6206,"BSTAR":0.0026477235,"MEAN_MOTION_DOT":0.02130398,"MEAN_MOTION_DDOT":0.0041366365},{"OBJECT_NAME":"STARLINK-34268","OBJECT_ID":"2025-133AA","EPOCH":"2026-04-22T06:00:00.999648","MEAN_MOTION":15.97590166,"ECCENTRICITY":0.00011918,"INCLINATION":53.1583,"RA_OF_ASC_NODE":270.165,"ARG_OF_PERICENTER":339.2441,"MEAN_ANOMALY":154.3774,"EPHEMERIS_TYPE":0,"CLASSIFICATION_TYPE":"U","NORAD_CAT_ID":64496,"ELEMENT_SET_NO":999,"REV_AT_EPOCH":586,"BSTAR":0.0048247706,"MEAN_MOTION_DOT":0.02119655,"MEAN_MOTION_DDOT":0.0029695936},{"OBJECT_NAME":"STARLINK-34792","OBJECT_ID":"2025-167H","EPOCH":"2026-04-22T12:30:23.435712","MEAN_MOTION":16.06945307,"ECCENTRICITY":0.0001646,"INCLINATION":53.1571,"RA_OF_ASC_NODE":177.787,"ARG_OF_PERICENTER":46.172,"MEAN_ANOMALY":313.9449,"EPHEMERIS_TYPE":0,"CLASSIFICATION_TYPE":"U","NORAD_CAT_ID":65085,"ELEMENT_SET_NO":999,"REV_AT_EPOCH":4026,"BSTAR":0.0019476,"MEAN_MOTION_DOT":0.01513801,"MEAN_MOTION_DDOT":0.0015031},{"OBJECT_NAME":"COSMOS 2591","OBJECT_ID":"2025-182A","EPOCH":"2026-04-22T01:36:09.093888","MEAN_MOTION":15.96420651,"ECCENTRICITY":0.00066238,"INCLINATION":96.5897,"RA_OF_ASC_NODE":44.4137,"ARG_OF_PERICENTER":55.8113,"MEAN_ANOMALY":304.3793,"EPHEMERIS_TYPE":0,"CLASSIFICATION_TYPE":"U","NORAD_CAT_ID":65267,"ELEMENT_SET_NO":999,"REV_AT_EPOCH":3874,"BSTAR":0.00018114818,"MEAN_MOTION_DOT":0.00074879,"MEAN_MOTION_DDOT":3.987026e-6},{"OBJECT_NAME":"COSMOS 2592","OBJECT_ID":"2025-182B","EPOCH":"2026-04-22T01:58:43.071744","MEAN_MOTION":15.96421556,"ECCENTRICITY":0.00070757,"INCLINATION":96.5854,"RA_OF_ASC_NODE":44.378,"ARG_OF_PERICENTER":56.141,"MEAN_ANOMALY":304.0541,"EPHEMERIS_TYPE":0,"CLASSIFICATION_TYPE":"U","NORAD_CAT_ID":65268,"ELEMENT_SET_NO":999,"REV_AT_EPOCH":3874,"BSTAR":0.00018717406,"MEAN_MOTION_DOT":0.00077419,"MEAN_MOTION_DDOT":4.131959e-6},{"OBJECT_NAME":"COSMOS 2593","OBJECT_ID":"2025-182C","EPOCH":"2026-04-21T20:20:14.108064","MEAN_MOTION":15.96409787,"ECCENTRICITY":0.0006923,"INCLINATION":96.5885,"RA_OF_ASC_NODE":44.1247,"ARG_OF_PERICENTER":53.3647,"MEAN_ANOMALY":306.8267,"EPHEMERIS_TYPE":0,"CLASSIFICATION_TYPE":"U","NORAD_CAT_ID":65269,"ELEMENT_SET_NO":999,"REV_AT_EPOCH":3870,"BSTAR":0.00018004,"MEAN_MOTION_DOT":0.00074388,"MEAN_MOTION_DDOT":3.958e-6},{"OBJECT_NAME":"COSMOS 2594","OBJECT_ID":"2025-182D","EPOCH":"2026-04-21T23:43:20.407296","MEAN_MOTION":15.9637644,"ECCENTRICITY":0.00069304,"INCLINATION":96.5913,"RA_OF_ASC_NODE":44.2407,"ARG_OF_PERICENTER":54.3446,"MEAN_ANOMALY":305.8477,"EPHEMERIS_TYPE":0,"CLASSIFICATION_TYPE":"U","NORAD_CAT_ID":65270,"ELEMENT_SET_NO":999,"REV_AT_EPOCH":3874,"BSTAR":5.180833e-6,"MEAN_MOTION_DOT":1.569e-5,"MEAN_MOTION_DDOT":1.85096e-6}]
